GLOBALSTAR M057         
1 25943U 99058A   24348.53999252 -.00000064  00000+0  25847-3 0  9998
2 25943  51.9955 155.0614 0002558  26.0753 334.0225 12.24804991144181
GLOBALSTAR M059         
1 25944U 99058B   24348.78038593 -.00000032  00000+0  66612-3 0  9998
2 25944  52.0042 348.7551 0000191 341.9967 189.2728 11.99973408140533
GLOBALSTAR M056         
1 25945U 99058C   24348.52296347 -.00000123  00000+0 -42057-3 0  9993
2 25945  51.9987 356.1756 0000906 170.1531 356.7879 12.04775917140241
GLOBALSTAR M031         
1 25946U 99058D   24348.50731341  .00000018  00000+0  11014-2 0  9999
2 25946  51.9963 259.6683 0001465 123.6170  47.2104 12.16025263141952
GLOBALSTAR M039         
1 25961U 99062A   24348.72397420 -.00000110  00000+0 -33576-4 0  9995
2 25961  51.9837 113.5943 0001676 300.8435  59.2266 12.62313294156822
GLOBALSTAR M034         
1 25962U 99062B   24348.67847340 -.00000069  00000+0  19413-3 0  9996
2 25962  51.9848 133.5999 0014805  54.9397 318.6530 11.79437428116487
GLOBALSTAR M029         
1 25963U 99062C   24349.44334042 -.00000033  00000+0  65554-3 0  9991
2 25963  51.9788 235.1584 0003377 100.0265  70.8260 11.99888986146996
GLOBALSTAR M061         
1 25964U 99062D   24348.46376679 -.00000055  00000+0  41593-3 0  9996
2 25964  51.9813 315.7304 0006265 339.1295 171.2611 11.76768909 99314
